[{"OBJECT_NAME":"GLOBAL-2","OBJECT_ID":"2018-099BG","EPOCH":"2026-03-09T16:47:21.463008","MEAN_MOTION":15.08046936,"ECCENTRICITY":0.00074537,"INCLINATION":97.3697,"RA_OF_ASC_NODE":109.328,"ARG_OF_PERICENTER":127.1924,"MEAN_ANOMALY":232.9986,"EPHEMERIS_TYPE":0,"CLASSIFICATION_TYPE":"U","NORAD_CAT_ID":43812,"ELEMENT_SET_NO":999,"REV_AT_EPOCH":39691,"BSTAR":0.0002614533,"MEAN_MOTION_DOT":3.97e-5,"MEAN_MOTION_DDOT":0},{"OBJECT_NAME":"STARLINK-3561","OBJECT_ID":"2022-041Z","EPOCH":"2026-03-09T09:04:16.360032","MEAN_MOTION":15.08832024,"ECCENTRICITY":0.00013358,"INCLINATION":53.2165,"RA_OF_ASC_NODE":100.5193,"ARG_OF_PERICENTER":86.3847,"MEAN_ANOMALY":273.7298,"EPHEMERIS_TYPE":0,"CLASSIFICATION_TYPE":"U","NORAD_CAT_ID":52284,"ELEMENT_SET_NO":999,"REV_AT_EPOCH":21445,"BSTAR":6.352563e-5,"MEAN_MOTION_DOT":7.23e-6,"MEAN_MOTION_DDOT":0}]
