GLOBAL-2                
1 43812U 18099BG  26068.69955396  .00003970  00000+0  26145-3 0  9998
2 43812  97.3697 109.3280 0007454 127.1924 232.9986 15.08046936396919
STARLINK-3561           
1 52284U 22041Z   26068.37796713  .00000723  00000+0  63526-4 0  9992
2 52284  53.2165 100.5193 0001335  86.3847 273.7298 15.08832024214459
